{
  "type": "FeatureCollection",
  "features": [
    {
      "type": "Feature",
      "properties": {
        "norad_id": 44333,
        "name": "AT&T T-16",
        "group": "intelsat",
        "lat": -0.008299003068139214,
        "lon": -151.12836733261372,
        "alt_km": 35785.578975094504,
        "timestamp": "2025-12-03T15:48:02.769357+00:00",
        "meta_object_name": "AT&T T-16",
        "meta_object_id": "2019-034A",
        "meta_epoch": "2025-12-03T06:48:38.769120",
        "meta_mean_motion": 1.00268518,
        "meta_eccentricity": 4.845e-05,
        "meta_inclination": 0.0315,
        "meta_ra_of_asc_node": 72.5992,
        "meta_arg_of_pericenter": 90.9112,
        "meta_mean_anomaly": 270.1672,
        "meta_ephemeris_type": 0,
        "meta_classification_type": "U",
        "meta_norad_cat_id": 44333,
        "meta_element_set_no": 999,
        "meta_rev_at_epoch": 2366,
        "meta_bstar": 0,
        "meta_mean_motion_dot": -9.6e-07,
        "meta_mean_motion_ddot": 0,
        "tle_line1": "1 44333U 19034A   25337.28378205 -.00000096  00000+0  00000+0 0  9993",
        "tle_line2": "2 44333   0.0315  72.5992 0000484  90.9112 270.1672  1.00268518 23663"
      },
      "geometry": {
        "type": "Point",
        "coordinates": [
          -151.12836733261372,
          -0.008299003068139214
        ]
      }
    },
    {
      "type": "Feature",
      "properties": {
        "norad_id": 44476,
        "name": "INTELSAT 39 (IS-39)",
        "group": "intelsat",
        "lat": 0.03455123248135475,
        "lon": 11.67309397556871,
        "alt_km": 35789.46493042668,
        "timestamp": "2025-12-03T15:48:02.769368+00:00",
        "meta_object_name": "INTELSAT 39 (IS-39)",
        "meta_object_id": "2019-049B",
        "meta_epoch": "2025-12-03T05:29:11.878080",
        "meta_mean_motion": 1.00270143,
        "meta_eccentricity": 8.872e-05,
        "meta_inclination": 0.0161,
        "meta_ra_of_asc_node": 313.7888,
        "meta_arg_of_pericenter": 200.448,
        "meta_mean_anomaly": 62.3341,
        "meta_ephemeris_type": 0,
        "meta_classification_type": "U",
        "meta_norad_cat_id": 44476,
        "meta_element_set_no": 999,
        "meta_rev_at_epoch": 2316,
        "meta_bstar": 0,
        "meta_mean_motion_dot": 5.2e-07,
        "meta_mean_motion_ddot": 0,
        "tle_line1": "1 44476U 19049B   25337.22860970  .00000052  00000+0  00000+0 0  9997",
        "tle_line2": "2 44476   0.0161 313.7888 0000887 200.4480  62.3341  1.00270143 23163"
      },
      "geometry": {
        "type": "Point",
        "coordinates": [
          11.67309397556871,
          0.03455123248135475
        ]
      }
    },
    {
      "type": "Feature",
      "properties": {
        "norad_id": 46114,
        "name": "GALAXY 30 (G-30)",
        "group": "intelsat",
        "lat": -0.031031274810660116,
        "lon": -175.28433419211458,
        "alt_km": 35781.86619363876,
        "timestamp": "2025-12-03T15:48:02.769378+00:00",
        "meta_object_name": "GALAXY 30 (G-30)",
        "meta_object_id": "2020-056C",
        "meta_epoch": "2025-12-03T06:18:44.629920",
        "meta_mean_motion": 1.0027272,
        "meta_eccentricity": 0.00024466,
        "meta_inclination": 0.0137,
        "meta_ra_of_asc_node": 307.2477,
        "meta_arg_of_pericenter": 305.2154,
        "meta_mean_anomaly": 149.5868,
        "meta_ephemeris_type": 0,
        "meta_classification_type": "U",
        "meta_norad_cat_id": 46114,
        "meta_element_set_no": 999,
        "meta_rev_at_epoch": 1932,
        "meta_bstar": 0,
        "meta_mean_motion_dot": 5.5e-07,
        "meta_mean_motion_ddot": 0,
        "tle_line1": "1 46114U 20056C   25337.26301655  .00000055  00000+0  00000+0 0  9995",
        "tle_line2": "2 46114   0.0137 307.2477 0002446 305.2154 149.5868  1.00272720 19322"
      },
      "geometry": {
        "type": "Point",
        "coordinates": [
          -175.28433419211458,
          -0.031031274810660116
        ]
      }
    },
    {
      "type": "Feature",
      "properties": {
        "norad_id": 54026,
        "name": "GALAXY 33 (G-33)",
        "group": "intelsat",
        "lat": -0.01820907330390601,
        "lon": 176.72251094067116,
        "alt_km": 35783.070871023796,
        "timestamp": "2025-12-03T15:48:02.769389+00:00",
        "meta_object_name": "GALAXY 33 (G-33)",
        "meta_object_id": "2022-128A",
        "meta_epoch": "2025-12-02T16:34:35.368896",
        "meta_mean_motion": 1.00272458,
        "meta_eccentricity": 0.0001946,
        "meta_inclination": 0.0146,
        "meta_ra_of_asc_node": 335.983,
        "meta_arg_of_pericenter": 271.3406,
        "meta_mean_anomaly": 300.1238,
        "meta_ephemeris_type": 0,
        "meta_classification_type": "U",
        "meta_norad_cat_id": 54026,
        "meta_element_set_no": 999,
        "meta_rev_at_epoch": 1177,
        "meta_bstar": 0,
        "meta_mean_motion_dot": 9.9e-07,
        "meta_mean_motion_ddot": 0,
        "tle_line1": "1 54026U 22128A   25336.69068714  .00000099  00000+0  00000+0 0  9998",
        "tle_line2": "2 54026   0.0146 335.9830 0001946 271.3406 300.1238  1.00272458 11776"
      },
      "geometry": {
        "type": "Point",
        "coordinates": [
          176.72251094067116,
          -0.01820907330390601
        ]
      }
    },
    {
      "type": "Feature",
      "properties": {
        "norad_id": 54027,
        "name": "GALAXY 34 (G-34)",
        "group": "intelsat",
        "lat": -0.02247250249929774,
        "lon": -179.27275360530058,
        "alt_km": 35783.32867802979,
        "timestamp": "2025-12-03T15:48:02.769399+00:00",
        "meta_object_name": "GALAXY 34 (G-34)",
        "meta_object_id": "2022-128B",
        "meta_epoch": "2025-12-03T04:34:54.578208",
        "meta_mean_motion": 1.00273357,
        "meta_eccentricity": 0.0001417,
        "meta_inclination": 0.0131,
        "meta_ra_of_asc_node": 329.5107,
        "meta_arg_of_pericenter": 278.9008,
        "meta_mean_anomaly": 123.608,
        "meta_ephemeris_type": 0,
        "meta_classification_type": "U",
        "meta_norad_cat_id": 54027,
        "meta_element_set_no": 999,
        "meta_rev_at_epoch": 1194,
        "meta_bstar": 0,
        "meta_mean_motion_dot": 7.8e-07,
        "meta_mean_motion_ddot": 0,
        "tle_line1": "1 54027U 22128B   25337.19090947  .00000078  00000+0  00000+0 0  9995",
        "tle_line2": "2 54027   0.0131 329.5107 0001417 278.9008 123.6080  1.00273357 11942"
      },
      "geometry": {
        "type": "Point",
        "coordinates": [
          -179.27275360530058,
          -0.02247250249929774
        ]
      }
    },
    {
      "type": "Feature",
      "properties": {
        "norad_id": 54243,
        "name": "GALAXY 31 (G-31)",
        "group": "intelsat",
        "lat": -0.017305101061162575,
        "lon": -171.31137844911956,
        "alt_km": 35784.33114634679,
        "timestamp": "2025-12-03T15:48:02.769409+00:00",
        "meta_object_name": "GALAXY 31 (G-31)",
        "meta_object_id": "2022-153A",
        "meta_epoch": "2025-12-03T06:19:52.021920",
        "meta_mean_motion": 1.00271889,
        "meta_eccentricity": 0.00021067,
        "meta_inclination": 0.0121,
        "meta_ra_of_asc_node": 352.9297,
        "meta_arg_of_pericenter": 274.9243,
        "meta_mean_anomaly": 138.4493,
        "meta_ephemeris_type": 0,
        "meta_classification_type": "U",
        "meta_norad_cat_id": 54243,
        "meta_element_set_no": 999,
        "meta_rev_at_epoch": 516,
        "meta_bstar": 0,
        "meta_mean_motion_dot": 0,
        "meta_mean_motion_ddot": 0,
        "tle_line1": "1 54243U 22153A   25337.26379655  .00000000  00000+0  00000+0 0  9992",
        "tle_line2": "2 54243   0.0121 352.9297 0002106 274.9243 138.4493  1.00271889  5161"
      },
      "geometry": {
        "type": "Point",
        "coordinates": [
          -171.31137844911956,
          -0.017305101061162575
        ]
      }
    },
    {
      "type": "Feature",
      "properties": {
        "norad_id": 54244,
        "name": "GALAXY 32 (G-32)",
        "group": "intelsat",
        "lat": -0.03459046993847281,
        "lon": -141.2955171061669,
        "alt_km": 35785.610877648236,
        "timestamp": "2025-12-03T15:48:02.769420+00:00",
        "meta_object_name": "GALAXY 32 (G-32)",
        "meta_object_id": "2022-153B",
        "meta_epoch": "2025-12-03T06:28:28.697376",
        "meta_mean_motion": 1.00270397,
        "meta_eccentricity": 0.00025443,
        "meta_inclination": 0.01,
        "meta_ra_of_asc_node": 324.0344,
        "meta_arg_of_pericenter": 340.1889,
        "meta_mean_anomaly": 134.262,
        "meta_ephemeris_type": 0,
        "meta_classification_type": "U",
        "meta_norad_cat_id": 54244,
        "meta_element_set_no": 999,
        "meta_rev_at_epoch": 1117,
        "meta_bstar": 0,
        "meta_mean_motion_dot": -1.55e-06,
        "meta_mean_motion_ddot": 0,
        "tle_line1": "1 54244U 22153B   25337.26977659 -.00000155  00000+0  00000+0 0  9993",
        "tle_line2": "2 54244   0.0100 324.0344 0002544 340.1889 134.2620  1.00270397 11177"
      },
      "geometry": {
        "type": "Point",
        "coordinates": [
          -141.2955171061669,
          -0.03459046993847281
        ]
      }
    }
  ]
}